[
    {
        "Altitude(m)": 610405.2921908272,
        "Argument of Periapsis(deg)": 0.0,
        "Eccentricity": 0.0,
        "Inclination(deg)": 60.0,
        "Latitude(deg)": 52.11118649227221,
        "Longitude(deg)": -142.52245729587307,
        "Mean Anomaly(deg)": 114.5455,
        "RAAN(deg)": 184.99999999999997,
        "Satellite Name": "Test1 821",
        "Satellite Number": 821,
        "Semi-Major Axis(m)": 6980739.136638005,
        "Time(s)": 0
    },
    {
        "Altitude(m)": 610321.8645996102,
        "Argument of Periapsis(deg)": 0.00010418945913296404,
        "Eccentricity": 0.0,
        "Inclination(deg)": 60.0,
        "Latitude(deg)": 51.745900160591084,
        "Longitude(deg)": -141.75356654949204,
        "Mean Anomaly(deg)": 115.16560614546182,
        "RAAN(deg)": 184.99957995086024,
        "Satellite Name": "Test1 821",
        "Satellite Number": 821,
        "Semi-Major Axis(m)": 6980739.136638005,
        "Time(s)": 10
    }
]